APRIZESAT 2             
1 28366U 04025A   26165.22319207  .00000134  00000+0  55115-4 0  9990
2 28366  98.1010 331.3715 0104288 258.8999 100.0449 14.38034733151216
SAUDICOMSAT 1           
1 28369U 04025D   26165.26639915  .00000350  00000+0  91190-4 0  9991
2 28369  98.5772 175.3191 0032844  34.3884 325.9430 14.55471674163703
SAUDICOMSAT 2           
1 28370U 04025E   26165.29584459  .00000231  00000+0  71267-4 0  9999
2 28370  98.6642 177.4602 0054138 268.4401  91.0590 14.49979782159683
APRIZESAT 1             
1 28372U 04025G   26165.26215389  .00000199  00000+0  61045-4 0  9997
2 28372  98.6304 175.9081 0044925 162.6321 197.6423 14.51775632161483
NANOSAT-1               
1 28493U 04049B   26165.26224275  .00000911  00000+0  12727-3 0  9995
2 28493  98.2272 301.8518 0002951 315.5783  44.5191 14.80154407155013
SAUDICOMSAT 7           
1 31119U 07012C   26165.17807722  .00000399  00000+0  80635-4 0  9995
2 31119  98.3777 139.2482 0055083 204.7082 155.1481 14.66107765 21990
SAUDICOMSAT 6           
1 31121U 07012E   26165.28533254  .00000541  00000+0  11319-3 0  9997
2 31121  98.4098 132.7477 0071259 336.8810  22.9189 14.62555202 19768
SAUDICOMSAT 5           
1 31124U 07012H   26165.15572385  .00000553  00000+0  10368-3 0  9990
2 31124  98.3488 139.9732 0048308 134.0348 226.4852 14.68153092 23152
SAUDICOMSAT 3           
1 31125U 07012J   26165.18959796  .00000773  00000+0  13397-3 0  9998
2 31125  98.3143 140.5563 0040356  62.4074 298.1221 14.70701206 24387
SAUDICOMSAT 4           
1 31127U 07012L   26164.87515796  .00000442  00000+0  91204-4 0  9990
2 31127  98.3982 137.3781 0062045 268.7951  90.6142 14.64509396 20809
APRIZESAT 4             
1 35684U 09041D   26165.15518865  .00000593  00000+0  77384-4 0  9998
2 35684  98.1412 240.4152 0042596 333.0800  26.8203 14.83875858910912
APRIZESAT 3             
1 35686U 09041F   26165.15646432  .00001462  00000+0  13041-3 0  9997
2 35686  98.2055 318.2352 0062749  77.5021 283.3210 14.96232350915923
S-NET D                 
1 43186U 18014G   26165.29502880  .00005089  00000+0  26336-3 0  9994
2 43186  97.5371  70.1040 0009212  39.1918 320.9980 15.16648458458324
S-NET B                 
1 43187U 18014H   26165.30642462  .00004644  00000+0  24079-3 0  9996
2 43187  97.5379  70.1021 0009726  34.4282 325.7579 15.16618848458321
S-NET A                 
1 43188U 18014J   26165.22794561  .00005201  00000+0  26897-3 0  9996
2 43188  97.5388  70.2319 0009609  35.3723 324.8145 15.16655783458310
S-NET C                 
1 43189U 18014K   26165.24430765  .00004633  00000+0  24025-3 0  9991
2 43189  97.5403  70.3226 0010782  27.3893 332.7906 15.16610423456863
SALSAT                  
1 46495U 20068K   26165.00581426  .00008178  00000+0  28632-3 0  9997
2 46495  97.8843 167.8766 0008281 321.5879  38.4769 15.29759103314876
OOV-CUBE (TUBSAT-30)    
1 60240U 24128F   26164.92812935  .00002141  00000+0  17165-3 0  9997
2 60240  61.9948 236.9373 0045036 132.9755 227.5126 15.02762484105622
LPNTSAT-001 (IOD-1)     
1 68408U 26065A   26164.91380336  .00002794  00000+0  13816-3 0  9990
2 68408  97.4026  45.4930 0017030  21.8000 338.3955 15.18522908 11765
